satname,norad_id,inclination_deg,eccentricity,mean_motion_rev_per_day,perigee_km,apogee_km,l1,l2
STARLINK-1008,44714,53.0555,0.0001568,15.0638533,546.1706180363972,548.3424214441875,1 44714U 19074B   25305.45637206 -.00004598  00000+0 -29010-3 0  9991,2 44714  53.0555  42.2780 0001568  84.6870 275.4297 15.06385330329421
STARLINK-1010,44716,53.0419,0.0005347,16.00413016,269.7175997093227,276.8306187495318,1 44716U 19074D   25305.30682315  .00458723  10234-3  85741-3 0  9996,2 44716  53.0419 327.7674 0005347  60.6071 299.5492 16.00413016330436
STARLINK-1011,44717,53.0489,0.0004374,15.86193571,310.0393501926292,315.8927271308503,1 44717U 19074E   25305.66668981  .00321073  00000+0  12211-2 0  9993,2 44717  53.0489  23.1709 0004374 323.6940 247.2738 15.86193571  5993
STARLINK-1012,44718,53.0548,0.0001155,15.06386856,546.4519602867813,548.0517251094443,1 44718U 19074F   25305.56695065 -.00002868  00000+0 -17381-3 0  9990,2 44718  53.0548  41.7805 0001155  75.8334 284.2783 15.06386856329431
STARLINK-1017,44723,53.0509,0.0001401,15.15099334,519.7104831460456,521.6435308308037,1 44723U 19074L   25305.53528948  .00036353  00000+0  19251-2 0  9999,2 44723  53.0509  38.4565 0001401 266.8586  93.2246 15.15099334329484
STARLINK-1019,44724,53.0553,0.0001464,15.17376614,512.7638067540465,514.7817579383172,1 44724U 19074M   25305.66668981  .01110371  00000+0  50681-1 0  9991,2 44724  53.0553  41.0750 0001464  71.0417 266.7466 15.17376614  5706
STARLINK-1020,44725,53.055,0.0001403,15.0639048,546.2691050245148,548.212366017101,1 44725U 19074N   25305.50245118 -.00004582  00000+0 -28895-3 0  9999,2 44725  53.0550  62.0744 0001403  87.5487 272.5662 15.06390480329147
STARLINK-1031,44736,53.0503,0.0005053,15.47847145,419.5884989568285,426.46175340154514,1 44736U 19074Z   25305.63346120  .00089722  00000+0  16860-2 0  9995,2 44736  53.0503  30.4660 0005053 253.1893 106.8560 15.47847145329618
STARLINK-1036,44741,53.0523,7.02e-05,15.06388245,546.7614235566216,547.7337475524337,1 44741U 19074AE  25305.59828194  .00000531  00000+0  54541-4 0  9993,2 44741  53.0523  61.6402 0000702  93.5089 266.5981 15.06388245329162
STARLINK-1039,44744,53.051,0.0004968,15.12916976,523.87907138431,530.7403232227507,1 44744U 19074AH  25305.66018377  .00041534  00000+0  23338-2 0  9994,2 44744  53.0510  79.2766 0004968 151.9220 208.2040 15.12916976328920
STARLINK-1042,44747,53.0475,0.0003346,15.43138922,434.5716813610434,439.1322719842319,1 44747U 19074AL  25305.49787922  .00018295  00000+0  41505-3 0  9992,2 44747  53.0475 346.7135 0003346  92.2397 267.8991 15.43138922330230
STARLINK-1043,44748,53.0554,0.0001516,15.06390041,546.1921935383971,548.291968475758,1 44748U 19074AM  25305.63698473  .00000611  00000+0  59943-4 0  9990,2 44748  53.0554  81.4677 0001516  82.3737 277.7424 15.06390041328899
STARLINK-1046,44751,53.0514,0.0001721,15.06394262,546.0372886242703,548.4209996510817,1 44751U 19074AQ  25305.65172893 -.00000344  00000+0 -41987-5 0  9994,2 44751  53.0514  81.4002 0001721  88.0388 272.0799 15.06394262328896
STARLINK-1047,44752,53.0733,0.0003225,15.29266073,475.79392033984914,480.21613194671227,1 44752U 19074AR  25305.47825268  .00011258  00000+0  40294-3 0  9998,2 44752  53.0733  23.4614 0003225 158.0588 202.0550 15.29266073329708
STARLINK-1048,44753,53.0534,0.0001547,15.06417235,546.087392398892,548.2300788995008,1 44753U 19074AS  25305.54482782  .00015028  00000+0  10251-2 0  9995,2 44753  53.0534  41.8805 0001547  87.9876 272.1290 15.06417235329431
STARLINK-1053,44758,53.0419,0.0003296,15.60538447,383.8711888789585,388.3301743586808,1 44758U 19074AX  25305.56624838  .00054545  00000+0  65075-3 0  9994,2 44758  53.0419 359.6868 0003296  31.7831 328.3380 15.60538447330040
STARLINK-1054,44759,53.0374,0.0006474,15.93218818,288.96300951195735,297.6011629448067,1 44759U 19074AY  25305.66668981  .00483344  10317-3  13416-2 0  9993,2 44759  53.0374  22.8003 0006474 336.8115  36.1829 15.93218818  6052
STARLINK-1056,44761,53.036,0.0005112,16.09310288,245.34837112296736,252.12368610742487,1 44761U 19074BA  25305.54485160  .00755528  31770-3  81950-3 0  9990,2 44761  53.0360   8.9566 0005112  18.1980 341.9235 16.09310288329909
STARLINK-1060,44765,53.053,0.0004068,15.63006386,376.22966312724475,381.7272522636249,1 44765U 19074BE  25305.66668981  .00166328  00000+0  17675-2 0  9995,2 44765  53.0530  45.3556 0004068 350.5415  70.4949 15.63006386  5986
STARLINK-1063,44768,53.0546,0.0001283,15.06393329,546.3434788247596,548.1205285111018,1 44768U 19074BH  25305.64067194  .00000460  00000+0  49790-4 0  9994,2 44768  53.0546  81.4527 0001283  85.3991 274.7145 15.06393329328903
STARLINK-1067,44771,53.0552,0.0001309,15.06396378,546.3161292895111,548.1291884482034,1 44771U 19074BL  25305.09883380  .00000324  00000+0  40629-4 0  9991,2 44771  53.0552  83.8837 0001309  80.0647 280.0490 15.06396378328813
STARLINK-1068,44772,53.0544,0.0001367,15.06388831,546.2990896988231,548.1924893534806,1 44772U 19074BM  25305.62039935 -.00000615  00000+0 -22376-4 0  9994,2 44772  53.0544  61.5420 0001367  80.1935 279.9208 15.06388831329169
STARLINK-1112,44925,53.0497,0.0004909,15.54849377,399.26184805388493,405.91916632044104,1 44925U 20001M   25305.61781484  .00020754  00000+0  31194-3 0  9999,2 44925  53.0497 158.9377 0004909 144.4791 215.6547 15.54849377321140
STARLINK-1114,44927,53.0535,0.0001574,15.06416397,546.0712619976775,548.2513459037609,1 44927U 20001P   25304.99563131  .00011717  00000+0  80385-3 0  9993,2 44927  53.0535 204.3487 0001574  84.3570 275.7598 15.06416397320450
STARLINK-1123,44930,53.0538,0.0001652,15.06402362,546.0602523720681,548.3483851437859,1 44930U 20001S   25305.40845759  .00000268  00000+0  36896-4 0  9991,2 44930  53.0538 202.4961 0001652  77.5056 282.6117 15.06402362320511
STARLINK-1144,44933,53.0433,0.0011456,15.60736313,377.78051242642596,393.27742389267405,1 44933U 20001V   25305.66668981  .00137504  00000+0  15981-2 0  9996,2 44933  53.0433 135.7072 0011456 101.4983 184.2369 15.60736313  5789
STARLINK-1091,44940,53.0308,0.0001341,16.06653936,255.14870923090984,256.927995060355,1 44940U 20001AC  25304.85616017  .01017846  58216-3  13148-2 0  9993,2 44940  53.0308 115.4949 0001341 253.5232 106.5653 16.06653936321676
STARLINK-1094,44941,53.0543,0.0002064,15.06396468,545.7929888540684,548.6517772073839,1 44941U 20001AD  25305.62039622 -.00000824  00000+0 -36428-4 0  9992,2 44941  53.0543 181.5455 0002064  94.2124 265.9101 15.06396468320824
STARLINK-1096,44942,52.9852,0.0007823,15.91315596,293.37718350197065,303.8236068304486,1 44942U 20001AE  25305.66668981  .00248562  34048-4  76565-3 0  9993,2 44942  52.9852 299.3566 0007823  53.9686 114.8375 15.91315596  6069
STARLINK-1122,44949,53.053,0.0001943,15.06394571,545.882598633535,548.573795549125,1 44949U 20001AM  25305.64251474 -.00001305  00000+0 -68706-4 0  9992,2 44949  53.0530 181.4421 0001943  91.6257 268.4955 15.06394571320821
STARLINK-1080,44961,53.0522,0.0001501,15.0639669,546.1822062888596,548.2611989713896,1 44961U 20001AZ  25305.30893233  .00000663  00000+0  63412-4 0  9997,2 44961  53.0522 162.9433 0001501  94.3082 265.8079 15.06396690321068
STARLINK-1090,44968,53.0523,0.0001218,15.0638909,546.4014841916796,548.0885072458368,1 44968U 20001BG  25304.91453186 -.00003878  00000+0 -24164-3 0  9992,2 44968  53.0523 164.7141 0001218  95.4307 264.6821 15.06389090321001
STARLINK-1107,44972,53.0074,0.0004676,15.68837108,359.07399765876744,365.37758494119043,1 44972U 20001BL  25305.66668981  .00203230  00000+0  17009-2 0  9992,2 44972  53.0074  75.3120 0004676 284.3126 249.7199 15.68837108  5816
STARLINK-1132,45044,53.0516,0.0001155,15.06400684,546.4095840612727,548.0093390938964,1 45044U 20006A   25305.20572572  .00000965  00000+0  83676-4 0  9993,2 45044  53.0516 123.4071 0001155  87.9230 272.1891 15.06400684317373
STARLINK-1131,45047,53.053,0.0001531,15.06397023,546.1604097684176,548.2809542906552,1 45047U 20006D   25305.57991454 -.00003355  00000+0 -20642-3 0  9991,2 45047  53.0530 142.2661 0001531  91.7018 268.4146 15.06397023317149
STARLINK-1134,45048,53.0401,0.0012282,15.26667851,477.3514930892361,494.21202312665173,1 45048U 20006E   25297.87285069  .00016521  00000+0  63194-3 0  9999,2 45048  53.0401 155.6330 0012282 116.8822 243.3433 15.26667851316281
STARLINK-1156,45054,53.0528,0.0001762,15.0639687,546.0009028478871,548.4413990602834,1 45054U 20006L   25305.55037134  .00000814  00000+0  73531-4 0  9994,2 45054  53.0528 141.8581 0001762  93.1600 266.9590 15.06396870317144
STARLINK-1159,45057,53.0581,0.0001378,15.27608023,482.01972649789514,483.91064626046136,1 45057U 20006P   25305.66668981  .01080467  00000+0  36596-1 0  9999,2 45057  53.0581 140.3699 0001378  86.4867 243.5204 15.27608023  5802
STARLINK-1166,45060,53.0525,0.0001468,15.06395347,546.2091754880375,548.2424620116226,1 45060U 20006S   25305.57616696 -.00001473  00000+0 -79993-4 0  9991,2 45060  53.0525 141.7437 0001468  86.0210 274.0947 15.06395347317153
STARLINK-1169,45061,53.053,0.0001472,15.06402058,546.1858400925958,548.2246608511341,1 45061U 20006T   25304.98641582  .00000186  00000+0  31375-4 0  9998,2 45061  53.0530 144.3929 0001472  95.2873 264.8284 15.06402058317066
STARLINK-1171,45062,53.0551,6.69e-05,15.32197478,468.79934976250297,469.7155311386341,1 45062U 20006U   25305.66668981  .01492442  00000+0  43313-1 0  9990,2 45062  53.0551 138.8326 0000669 343.3492  35.4789 15.32197478  5804
STARLINK-1133,45064,53.052,0.0001529,15.06395454,546.166602883728,548.2843787334168,1 45064U 20006W   25305.51535110  .00000079  00000+0  24187-4 0  9994,2 45064  53.0520 122.0123 0001529  91.2971 268.8193 15.06395454317429
STARLINK-1167,45071,53.0498,0.0001152,15.0639822,546.4192126049402,548.0148141696245,1 45071U 20006AD  25305.20941066  .00000983  00000+0  84861-4 0  9998,2 45071  53.0498 123.3884 0001152  88.9357 271.1764 15.06398220317371
